IRIDIUM 154             
1 43574U 18061F   26189.65053620  .00000198  00000+0  63729-4 0  9990
2 43574  86.3946  47.8299 0002309  90.1524 269.9936 14.34216616416486
IRIDIUM 163             
1 43575U 18061G   26189.63150857  .00000167  00000+0  52507-4 0  9997
2 43575  86.3939  47.7525 0002179  84.9756 275.1689 14.34216847416450
IRIDIUM 156             
1 43576U 18061H   26189.67590757  .00000247  00000+0  80971-4 0  9994
2 43576  86.3940  47.7411 0002061  90.0397 270.1035 14.34217326416459
IRIDIUM 164             
1 43577U 18061J   26189.72664973  .00000128  00000+0  38813-4 0  9999
2 43577  86.3942  47.7609 0002265  89.7129 270.4327 14.34216398416506
IRIDIUM 159             
1 43578U 18061K   26189.69493440  .00000166  00000+0  52175-4 0  9994
2 43578  86.3939  47.7103 0002192  85.5583 274.5863 14.34217227416466
IRIDIUM 180             
1 43922U 19002A   26189.83397031 -.00000120  00000+0 -50051-4 0  9991
2 43922  86.3984 344.5472 0002216  90.2307 269.9143 14.34216440392097
IRIDIUM 176             
1 43923U 19002B   26189.90874114  .00000556  00000+0  84361-4 0  9994
2 43923  86.6104 344.4566 0002347  89.0399 271.1087 14.72243595402446
IRIDIUM 168             
1 43924U 19002C   26189.82762300  .00000063  00000+0  15366-4 0  9991
2 43924  86.3988 344.6280 0002239  90.6605 269.4847 14.34217854392075
IRIDIUM 173             
1 43925U 19002D   26189.88470810  .00000172  00000+0  54385-4 0  9995
2 43925  86.3984 344.4922 0002154  91.2343 268.9099 14.34218349392067
IRIDIUM 169             
1 43926U 19002E   26189.95362090  .00000184  00000+0  53599-4 0  9993
2 43926  86.4219  16.0905 0001725  97.1413 262.9982 14.38613567393352
IRIDIUM 172             
1 43927U 19002F   26189.94813614  .00000237  00000+0  77418-4 0  9991
2 43927  86.3982 344.4736 0002189  90.6927 269.4520 14.34217146392080
IRIDIUM 175             
1 43928U 19002G   26189.76337380  .00000236  00000+0  63568-4 0  9993
2 43928  86.4515 281.5025 0004905 128.2536 231.9107 14.43625005402093
IRIDIUM 171             
1 43929U 19002H   26189.92910776  .00000140  00000+0  42959-4 0  9993
2 43929  86.3992 344.7900 0002186  94.7476 265.3970 14.34217265392075
IRIDIUM 170             
1 43930U 19002J   26189.91491365  .00000558  00000+0  84652-4 0  9991
2 43930  86.6104 344.4562 0002340  85.4411 274.7073 14.72244124402452
IRIDIUM 167             
1 43931U 19002K   26189.92276521  .00000157  00000+0  49009-4 0  9990
2 43931  86.3985 344.5068 0002193  99.5765 260.5679 14.34217373392078
IRIDIUM 181             
1 56726U 23068S   26189.66789602  .00000209  00000+0  56177-4 0  9995
2 56726  86.4479  47.8085 0002460  84.9943 275.1539 14.43309954165531
IRIDIUM 177             
1 56727U 23068T   26189.88921752  .00000774  00000+0  98863-4 0  9999
2 56727  86.1981 318.4867 0002133  92.3729 267.7736 14.80022917169570
IRIDIUM 174             
1 56728U 23068U   26189.83453915  .00000587  00000+0  89204-4 0  9997
2 56728  86.6112 344.6394 0002085  83.2220 276.9235 14.72252477169202
IRIDIUM 178             
1 56729U 23068V   26189.26968867  .00000564  00000+0  71196-4 0  9998
2 56729  86.6533  16.5481 0002285  87.2958 272.8525 14.80024108169480
IRIDIUM 179             
1 56730U 23068W   26189.94047494  .00000696  00000+0  88574-4 0  9993
2 56730  86.6765  25.3118 0002267  91.1035 269.0446 14.80030567169581
