OBJECT_NAME,OBJECT_ID,EPOCH,MEAN_MOTION,ECCENTRICITY,INCLINATION,RA_OF_ASC_NODE,ARG_OF_PERICENTER,MEAN_ANOMALY,EPHEMERIS_TYPE,CLASSIFICATION_TYPE,NORAD_CAT_ID,ELEMENT_SET_NO,REV_AT_EPOCH,BSTAR,MEAN_MOTION_DOT,MEAN_MOTION_DDOT
IRIDIUM 154,2018-061F,2026-07-08T15:36:46.327680,14.34216616,.00023092,86.3946,47.8299,90.1524,269.9936,0,U,43574,999,41648,.63729253E-4,.198E-5,0
IRIDIUM 163,2018-061G,2026-07-08T15:09:22.340448,14.34216847,.00021791,86.3939,47.7525,84.9756,275.1689,0,U,43575,999,41645,.52506951E-4,.167E-5,0
IRIDIUM 156,2018-061H,2026-07-08T16:13:18.414048,14.34217326,.00020612,86.3940,47.7411,90.0397,270.1035,0,U,43576,999,41645,.80971083E-4,.247E-5,0
IRIDIUM 164,2018-061J,2026-07-08T17:26:22.536672,14.34216398,.00022654,86.3942,47.7609,89.7129,270.4327,0,U,43577,999,41650,.38812835E-4,.128E-5,0
IRIDIUM 159,2018-061K,2026-07-08T16:40:42.332160,14.34217227,.00021926,86.3939,47.7103,85.5583,274.5863,0,U,43578,999,41646,.52175178E-4,.166E-5,0
IRIDIUM 180,2019-002A,2026-07-08T20:00:55.034784,14.34216440,.00022169,86.3984,344.5472,90.2307,269.9143,0,U,43922,999,39209,-.50051103E-4,-.12E-5,0
IRIDIUM 176,2019-002B,2026-07-08T21:48:35.234496,14.72243595,.0002347,86.6104,344.4566,89.0399,271.1087,0,U,43923,999,40244,.84360696E-4,.556E-5,0
IRIDIUM 168,2019-002C,2026-07-08T19:51:46.627200,14.34217854,.00022395,86.3988,344.6280,90.6605,269.4847,0,U,43924,999,39207,.15366033E-4,.63E-6,0
IRIDIUM 173,2019-002D,2026-07-08T21:13:58.779840,14.34218349,.00021542,86.3984,344.4922,91.2343,268.9099,0,U,43925,999,39206,.5438456E-4,.172E-5,0
IRIDIUM 169,2019-002E,2026-07-08T22:53:12.845760,14.38613567,.00017252,86.4219,16.0905,97.1413,262.9982,0,U,43926,999,39335,.53599411E-4,.184E-5,0
IRIDIUM 172,2019-002F,2026-07-08T22:45:18.962496,14.34217146,.00021898,86.3982,344.4736,90.6927,269.4520,0,U,43927,999,39208,.77418246E-4,.237E-5,0
IRIDIUM 175,2019-002G,2026-07-08T18:19:15.496320,14.43625005,.00049053,86.4515,281.5025,128.2536,231.9107,0,U,43928,999,40209,.63567758E-4,.236E-5,0
IRIDIUM 171,2019-002H,2026-07-08T22:17:54.910464,14.34217265,.00021866,86.3992,344.7900,94.7476,265.3970,0,U,43929,999,39207,.42959021E-4,.14E-5,0
IRIDIUM 170,2019-002J,2026-07-08T21:57:28.539360,14.72244124,.00023401,86.6104,344.4562,85.4411,274.7073,0,U,43930,999,40245,.846525E-4,.558E-5,0
IRIDIUM 167,2019-002K,2026-07-08T22:08:46.914144,14.34217373,.0002193,86.3985,344.5068,99.5765,260.5679,0,U,43931,999,39207,.49008929E-4,.157E-5,0
IRIDIUM 181,2023-068S,2026-07-08T16:01:46.216128,14.43309954,.000246,86.4479,47.8085,84.9943,275.1539,0,U,56726,999,16553,.56177245E-4,.209E-5,0
IRIDIUM 177,2023-068T,2026-07-08T21:20:28.393728,14.80022917,.00021339,86.1981,318.4867,92.3729,267.7736,0,U,56727,999,16957,.98863293E-4,.774E-5,0
IRIDIUM 174,2023-068U,2026-07-08T20:01:44.182560,14.72252477,.00020859,86.6112,344.6394,83.2220,276.9235,0,U,56728,999,16920,.89204414E-4,.587E-5,0
IRIDIUM 178,2023-068V,2026-07-08T06:28:21.101088,14.80024108,.00022852,86.6533,16.5481,87.2958,272.8525,0,U,56729,999,16948,.71196129E-4,.564E-5,0
IRIDIUM 179,2023-068W,2026-07-08T22:34:17.034816,14.80030567,.0002267,86.6765,25.3118,91.1035,269.0446,0,U,56730,999,16958,.88574413E-4,.696E-5,0
